HQ SpOC Sgp4Prop - Version: v9.4 - Build: May 01 2024 - Platform: Windows 64-bit - Compiler: OneAPI ifort                      


EPHEMERIS GENERATED BY SGP4 USING THE WGS-72 EARTH MODEL
COORDINATE FRAME=TRUE EQUATOR AND MEAN EQUINOX OF EPOCH
USING THE FK5 MEAN OF J2000 TIME AND REFERENCE FRAME

INPUT FILE = input\rel14_type4.inp
Start Time =         0.0000 min from epoch
Stop Time  =     43200.0000 min from epoch
Step size  =      2700.0000 min


     TSINCE (MIN)     N (REVS/DAY)          ECC (-)        INC (DEG)       NODE (DEG)      OMEGA (DEG)         MA (DEG)


 1 90021U RELEAS14 00051.47568104 +.00000184  00000 0  00000 0 4 0814                                                                                                                                                                                                                                                                                                                                                                                                                                                           
 2 90021   0.0222 182.4923 0000720  45.6036 131.8822  1.0027132801199                                                                                                                                                                                                                                                                                                                                                                                                                                                           

         0.0000000        1.0027137        0.0000720        0.0222000      182.4923000       45.6036000      131.8822000
      2700.0000000        1.0027574        0.0000663        0.0251711      180.6199221      331.5516672      164.7074366
      5400.0000000        1.0028049        0.0001243        0.0255986      178.4433438      332.4248119      122.9094728
      8100.0000000        1.0027601        0.0001137        0.0248872      173.2107455      358.2755828       59.2029253
     10800.0000000        1.0028049        0.0000877        0.0254409      163.8857244      358.3823542       25.3406819
     13500.0000000        1.0027846        0.0001222        0.0279665      153.7888663        3.3300674      347.4143249
     16200.0000000        1.0027999        0.0001524        0.0324107      148.6172588       22.3628790      290.4886425
     18900.0000000        1.0028657        0.0001579        0.0377478      147.9227277       45.9329928      224.5473032
     21600.0000000        1.0027909        0.0000963        0.0415937      148.7300517       47.0125653      179.5991462
     24300.0000000        1.0028206        0.0001062        0.0429407      149.6789771       16.7701217      165.8451987
     27000.0000000        1.0028836        0.0001502        0.0427155      147.8531774       26.4304867      114.9579109
     29700.0000000        1.0028358        0.0001335        0.0427360      142.4770834       60.5121888       43.2112354
     32400.0000000        1.0028813        0.0000799        0.0462421      136.4995151       75.4854863      351.1838928
     35100.0000000        1.0028523        0.0000957        0.0522110      132.9686159       53.0101440      334.1610667
     37800.0000000        1.0028730        0.0001383        0.0571212      133.1882744       70.7896436      273.1465866
     40500.0000000        1.0029424        0.0001182        0.0603971      134.8533534       94.8272759      204.4220058
     43200.0000000        1.0028634        0.0000374        0.0609307      135.2205269       49.7711034      206.0989778


 1 90022U RELEAS14 00051.59174492 +.00000136  00000 0  00000 0 4 0733                                                                                                                                                                                                                                                                                                                                                                                                                                                           
 2 90022   4.5701  71.6069 0014162  60.8451 299.2453  0.9654587100306                                                                                                                                                                                                                                                                                                                                                                                                                                                           

         0.0000000        0.9654591        0.0014162        4.5701000       71.6069000       60.8451000      299.2453000
      2700.0000000        0.9653619        0.0014489        4.5703120       71.5995760       56.3015856      235.4697254
      5400.0000000        0.9654468        0.0015420        4.5719403       71.5671252       56.6154331      166.8698434
      8100.0000000        0.9653965        0.0015047        4.5748820       71.5311301       57.9607188       97.2475393
     10800.0000000        0.9654248        0.0015029        4.5793583       71.5161777       56.8897819       30.0224920
     13500.0000000        0.9654001        0.0015376        4.5836815       71.5143235       58.4441558      320.1596107
     16200.0000000        0.9654297        0.0015069        4.5867564       71.5383971       60.1425583      250.1154833
     18900.0000000        0.9653600        0.0014863        4.5882689       71.5535795       57.4554282      184.4702789
     21600.0000000        0.9654513        0.0015636        4.5882060       71.5577898       57.7392863      115.8539155
     24300.0000000        0.9653677        0.0015072        4.5884239       71.5309401       61.7266097       43.5754049
     27000.0000000        0.9654596        0.0014084        4.5909784       71.4838433       60.7430579      336.2881306
     29700.0000000        0.9653974        0.0014740        4.5951244       71.4405717       59.6574997      269.1083731
     32400.0000000        0.9654124        0.0014498        4.6013163       71.4316871       60.9947108      199.4648200
     35100.0000000        0.9654147        0.0014332        4.6057657       71.4456491       57.9534671      134.1777398
     37800.0000000        0.9653874        0.0014936        4.6077568       71.4701686       58.1233416       65.6518091
     40500.0000000        0.9654152        0.0014314        4.6079334       71.4623528       60.6460351      354.8189398
     43200.0000000        0.9654108        0.0014225        4.6085661       71.4241113       57.6218772      289.5514046


 1 90023U RELEAS14 00051.45013393 +.00000064  00000 0  00000 0 4 0221                                                                                                                                                                                                                                                                                                                                                                                                                                                           
 2 90023  54.9132 182.6983 0017768 176.8444 183.1487  2.0055852401395                                                                                                                                                                                                                                                                                                                                                                                                                                                           

         0.0000000        2.0055861        0.0017768       54.9132000      182.6983000      176.8444000      183.1487000
      2700.0000000        2.0055855        0.0017805       54.9161301      182.6251792      177.1304978       96.6673547
      5400.0000000        2.0055848        0.0017840       54.9156918      182.5517340      177.3488159       10.2544436
      8100.0000000        2.0055842        0.0017893       54.9137437      182.4774991      177.3302469      284.0831272
     10800.0000000        2.0055835        0.0017971       54.9124945      182.4026101      177.2357962      197.9923918
     13500.0000000        2.0055829        0.0018059       54.9133769      182.3275361      177.2886402      111.7563585
     16200.0000000        2.0055822        0.0018135       54.9166642      182.2528298      177.5402307       25.3197445
     18900.0000000        2.0055815        0.0018190       54.9213353      182.1789027      177.8205246      298.8491239
     21600.0000000        2.0055809        0.0018232       54.9252787      182.1057621      177.9101963      212.5626388
     24300.0000000        2.0055802        0.0018278       54.9263517      182.0328460      177.8420236      126.4303146
     27000.0000000        2.0055796        0.0018319       54.9241334      181.9592758      177.9148216       40.1592636
     29700.0000000        2.0055789        0.0018327       54.9207635      181.8845451      178.2296763      313.6530816
     32400.0000000        2.0055783        0.0018305       54.9195003      181.8090454      178.4604770      227.2369052
     35100.0000000        2.0055776        0.0018294       54.9219660      181.7338388      178.3621597      141.1493285
     37800.0000000        2.0055770        0.0018320       54.9265743      181.6597798      178.2132642       55.1051347
     40500.0000000        2.0055763        0.0018360       54.9298733      181.5867628      178.3601727      328.7569918
     43200.0000000        2.0055757        0.0018394       54.9296864      181.5138932      178.6538324      242.2591642

